{"fetched_at":"2026-03-30T06:02:59Z","count":15439,"tles":[{"name":"STARLINK-35987","line1":"1 66860U 25281N   26087.69164344  .00025311  00000+0  92537-3 0  9994","line2":"2 66860  42.9967 235.9834 0000804 266.4458  93.6302 15.27607572 19090","category":"Starlink"}]}